{"fetched_at":"2026-07-12T17:32:24.168Z","source":"https://celestrak.org/NORAD/elements/gp.php?GROUP=oneweb&FORMAT=JSON","constellation":"oneweb","records":[{"OBJECT_NAME":"ONEWEB-0275","OBJECT_ID":"2021-060AC","EPOCH":"2026-07-12T12:52:25.759200","CLASSIFICATION_TYPE":"U","MEAN_MOTION":13.16595912,"ECCENTRICITY":0.0001996,"INCLINATION":87.9083,"RA_OF_ASC_NODE":223.7408,"ARG_OF_PERICENTER":96.6469,"MEAN_ANOMALY":263.4889,"EPHEMERIS_TYPE":0,"NORAD_CAT_ID":48993,"ELEMENT_SET_NO":999,"REV_AT_EPOCH":24289,"BSTAR":0.0002621,"MEAN_MOTION_DOT":0.00000113,"MEAN_MOTION_DDOT":0},{"OBJECT_NAME":"ONEWEB-0276","OBJECT_ID":"2021-060AD","EPOCH":"2026-07-12T11:50:53.246112","CLASSIFICATION_TYPE":"U","MEAN_MOTION":13.1659369,"ECCENTRICITY":0.0001975,"INCLINATION":87.9085,"RA_OF_ASC_NODE":223.7482,"ARG_OF_PERICENTER":94.2745,"MEAN_ANOMALY":265.8612,"EPHEMERIS_TYPE":0,"NORAD_CAT_ID":48994,"ELEMENT_SET_NO":999,"REV_AT_EPOCH":24290,"BSTAR":-0.00005165,"MEAN_MOTION_DOT":-7e-8,"MEAN_MOTION_DDOT":0},{"OBJECT_NAME":"ONEWEB-0277","OBJECT_ID":"2021-060AE","EPOCH":"2026-07-12T12:09:08.034336","CLASSIFICATION_TYPE":"U","MEAN_MOTION":13.16595074,"ECCENTRICITY":0.0002117,"INCLINATION":87.9068,"RA_OF_ASC_NODE":223.7545,"ARG_OF_PERICENTER":101.2663,"MEAN_ANOMALY":258.8705,"EPHEMERIS_TYPE":0,"NORAD_CAT_ID":48995,"ELEMENT_SET_NO":999,"REV_AT_EPOCH":24289,"BSTAR":-0.00008649,"MEAN_MOTION_DOT":-2e-7,"MEAN_MOTION_DDOT":0},{"OBJECT_NAME":"ONEWEB-0278","OBJECT_ID":"2021-060AF","EPOCH":"2026-07-12T11:55:26.913792","CLASSIFICATION_TYPE":"U","MEAN_MOTION":13.16593752,"ECCENTRICITY":0.0002265,"INCLINATION":87.9079,"RA_OF_ASC_NODE":223.7471,"ARG_OF_PERICENTER":89.7489,"MEAN_ANOMALY":270.3901,"EPHEMERIS_TYPE":0,"NORAD_CAT_ID":48996,"ELEMENT_SET_NO":999,"REV_AT_EPOCH":24302,"BSTAR":-0.00011322,"MEAN_MOTION_DOT":-3e-7,"MEAN_MOTION_DDOT":0},{"OBJECT_NAME":"ONEWEB-0279","OBJECT_ID":"2021-060AG","EPOCH":"2026-07-12T12:06:50.823360","CLASSIFICATION_TYPE":"U","MEAN_MOTION":13.16593649,"ECCENTRICITY":0.0001948,"INCLINATION":87.9077,"RA_OF_ASC_NODE":223.7436,"ARG_OF_PERICENTER":100.7534,"MEAN_ANOMALY":259.3816,"EPHEMERIS_TYPE":0,"NORAD_CAT_ID":48997,"ELEMENT_SET_NO":999,"REV_AT_EPOCH":24295,"BSTAR":-0.000054478,"MEAN_MOTION_DOT":-8e-8,"MEAN_MOTION_DDOT":0},{"OBJECT_NAME":"ONEWEB-0280","OBJECT_ID":"2021-060AH","EPOCH":"2026-07-12T12:28:29.970048","CLASSIFICATION_TYPE":"U","MEAN_MOTION":13.16594689,"ECCENTRICITY":0.0002414,"INCLINATION":87.908,"RA_OF_ASC_NODE":223.7447,"ARG_OF_PERICENTER":96.5323,"MEAN_ANOMALY":263.6082,"EPHEMERIS_TYPE":0,"NORAD_CAT_ID":48998,"ELEMENT_SET_NO":999,"REV_AT_EPOCH":24289,"BSTAR":0.000089169,"MEAN_MOTION_DOT":4.7e-7,"MEAN_MOTION_DDOT":0},{"OBJECT_NAME":"ONEWEB-0281","OBJECT_ID":"2021-060AJ","EPOCH":"2026-07-12T12:36:28.875744","CLASSIFICATION_TYPE":"U","MEAN_MOTION":13.16593989,"ECCENTRICITY":0.0002048,"INCLINATION":87.908,"RA_OF_ASC_NODE":223.7392,"ARG_OF_PERICENTER":92.4723,"MEAN_ANOMALY":267.6643,"EPHEMERIS_TYPE":0,"NORAD_CAT_ID":48999,"ELEMENT_SET_NO":999,"REV_AT_EPOCH":24296,"BSTAR":0.00026027,"MEAN_MOTION_DOT":0.00000112,"MEAN_MOTION_DDOT":0},{"OBJECT_NAME":"ONEWEB-0282","OBJECT_ID":"2021-060AK","EPOCH":"2026-07-12T11:30:21.888864","CLASSIFICATION_TYPE":"U","MEAN_MOTION":13.16594742,"ECCENTRICITY":0.0002106,"INCLINATION":87.9068,"RA_OF_ASC_NODE":223.7566,"ARG_OF_PERICENTER":93.1416,"MEAN_ANOMALY":266.9956,"EPHEMERIS_TYPE":0,"NORAD_CAT_ID":49000,"ELEMENT_SET_NO":999,"REV_AT_EPOCH":24293,"BSTAR":-0.000026248,"MEAN_MOTION_DOT":3e-8,"MEAN_MOTION_DDOT":0},{"OBJECT_NAME":"ONEWEB-0283","OBJECT_ID":"2021-060AL","EPOCH":"2026-07-12T11:14:23.869248","CLASSIFICATION_TYPE":"U","MEAN_MOTION":13.16593546,"ECCENTRICITY":0.0001955,"INCLINATION":87.9074,"RA_OF_ASC_NODE":223.7581,"ARG_OF_PERICENTER":98.7318,"MEAN_ANOMALY":261.4035,"EPHEMERIS_TYPE":0,"NORAD_CAT_ID":49001,"ELEMENT_SET_NO":999,"REV_AT_EPOCH":24294,"BSTAR":0.00020272,"MEAN_MOTION_DOT":9e-7,"MEAN_MOTION_DDOT":0},{"OBJECT_NAME":"ONEWEB-0284","OBJECT_ID":"2021-060AM","EPOCH":"2026-07-12T12:54:43.710624","CLASSIFICATION_TYPE":"U","MEAN_MOTION":13.16594144,"ECCENTRICITY":0.0002353,"INCLINATION":87.9081,"RA_OF_ASC_NODE":223.7376,"ARG_OF_PERICENTER":93.4456,"MEAN_ANOMALY":266.6944,"EPHEMERIS_TYPE":0,"NORAD_CAT_ID":49002,"ELEMENT_SET_NO":999,"REV_AT_EPOCH":24293,"BSTAR":0.00018354,"MEAN_MOTION_DOT":8.3e-7,"MEAN_MOTION_DDOT":0},{"OBJECT_NAME":"ONEWEB-0285","OBJECT_ID":"2021-075A","EPOCH":"2026-07-12T10:44:03.302016","CLASSIFICATION_TYPE":"U","MEAN_MOTION":13.124364,"ECCENTRICITY":0.0001741,"INCLINATION":87.8967,"RA_OF_ASC_NODE":345.64,"ARG_OF_PERICENTER":88.7451,"MEAN_ANOMALY":271.3877,"EPHEMERIS_TYPE":0,"NORAD_CAT_ID":49075,"ELEMENT_SET_NO":999,"REV_AT_EPOCH":23852,"BSTAR":-0.0028187,"MEAN_MOTION_DOT":-0.00001001,"MEAN_MOTION_DDOT":0},{"OBJECT_NAME":"ONEWEB-0286","OBJECT_ID":"2021-075B","EPOCH":"2026-07-12T12:08:00.511008","CLASSIFICATION_TYPE":"U","MEAN_MOTION":13.12441331,"ECCENTRICITY":0.0001675,"INCLINATION":87.8945,"RA_OF_ASC_NODE":345.6423,"ARG_OF_PERICENTER":81.7127,"MEAN_ANOMALY":278.4191,"EPHEMERIS_TYPE":0,"NORAD_CAT_ID":49076,"ELEMENT_SET_NO":999,"REV_AT_EPOCH":23788,"BSTAR":0.0003286,"MEAN_MOTION_DOT":0.00000131,"MEAN_MOTION_DDOT":0},{"OBJECT_NAME":"ONEWEB-0287","OBJECT_ID":"2021-075C","EPOCH":"2026-07-12T10:52:53.133600","CLASSIFICATION_TYPE":"U","MEAN_MOTION":13.17648169,"ECCENTRICITY":0.0001948,"INCLINATION":87.9141,"RA_OF_ASC_NODE":0.8391,"ARG_OF_PERICENTER":78.7621,"MEAN_ANOMALY":281.3729,"EPHEMERIS_TYPE":0,"NORAD_CAT_ID":49077,"ELEMENT_SET_NO":999,"REV_AT_EPOCH":23695,"BSTAR":0.00023765,"MEAN_MOTION_DOT":0.00000105,"MEAN_MOTION_DDOT":0},{"OBJECT_NAME":"ONEWEB-0288","OBJECT_ID":"2021-075D","EPOCH":"2026-07-12T09:44:16.018080","CLASSIFICATION_TYPE":"U","MEAN_MOTION":13.12442723,"ECCENTRICITY":0.0001981,"INCLINATION":87.8965,"RA_OF_ASC_NODE":345.6414,"ARG_OF_PERICENTER":91.3257,"MEAN_ANOMALY":268.8099,"EPHEMERIS_TYPE":0,"NORAD_CAT_ID":49078,"ELEMENT_SET_NO":999,"REV_AT_EPOCH":23849,"BSTAR":0.0010795,"MEAN_MOTION_DOT":0.00000401,"MEAN_MOTION_DDOT":0},{"OBJECT_NAME":"ONEWEB-0289","OBJECT_ID":"2021-075E","EPOCH":"2026-07-12T11:48:46.732320","CLASSIFICATION_TYPE":"U","MEAN_MOTION":13.17648181,"ECCENTRICITY":0.0002328,"INCLINATION":87.9148,"RA_OF_ASC_NODE":0.8498,"ARG_OF_PERICENTER":97.6658,"MEAN_ANOMALY":262.4738,"EPHEMERIS_TYPE":0,"NORAD_CAT_ID":49079,"ELEMENT_SET_NO":999,"REV_AT_EPOCH":23753,"BSTAR":0.0010426,"MEAN_MOTION_DOT":0.00000418,"MEAN_MOTION_DDOT":0},{"OBJECT_NAME":"ONEWEB-0290","OBJECT_ID":"2021-075F","EPOCH":"2026-07-12T11:09:54.086976","CLASSIFICATION_TYPE":"U","MEAN_MOTION":13.17650535,"ECCENTRICITY":0.0002284,"INCLINATION":87.9147,"RA_OF_ASC_NODE":0.8279,"ARG_OF_PERICENTER":96.2385,"MEAN_ANOMALY":263.9007,"EPHEMERIS_TYPE":0,"NORAD_CAT_ID":49080,"ELEMENT_SET_NO":999,"REV_AT_EPOCH":23694,"BSTAR":0.0000073115,"MEAN_MOTION_DOT":1.6e-7,"MEAN_MOTION_DDOT":0}]}
