ONEWEB-0275             
1 48993U 21060AC  26193.53640925  .00000113  00000+0  26210-3 0  9995
2 48993  87.9083 223.7408 0001996  96.6469 263.4889 13.16595912242898
ONEWEB-0276             
1 48994U 21060AD  26193.49367183 -.00000007  00000+0 -51650-4 0  9994
2 48994  87.9085 223.7482 0001975  94.2745 265.8612 13.16593690242904
ONEWEB-0277             
1 48995U 21060AE  26193.50634299 -.00000020  00000+0 -86490-4 0  9997
2 48995  87.9068 223.7545 0002117 101.2663 258.8705 13.16595074242894
ONEWEB-0278             
1 48996U 21060AF  26193.49683928 -.00000030  00000+0 -11322-3 0  9991
2 48996  87.9079 223.7471 0002265  89.7489 270.3901 13.16593752243029
ONEWEB-0279             
1 48997U 21060AG  26193.50475490 -.00000008  00000+0 -54478-4 0  9992
2 48997  87.9077 223.7436 0001948 100.7534 259.3816 13.16593649242959
ONEWEB-0280             
1 48998U 21060AH  26193.51979132  .00000047  00000+0  89169-4 0  9992
2 48998  87.9080 223.7447 0002414  96.5323 263.6082 13.16594689242894
ONEWEB-0281             
1 48999U 21060AJ  26193.52533421  .00000112  00000+0  26027-3 0  9997
2 48999  87.9080 223.7392 0002048  92.4723 267.6643 13.16593989242963
ONEWEB-0282             
1 49000U 21060AK  26193.47942001  .00000003  00000+0 -26248-4 0  9999
2 49000  87.9068 223.7566 0002106  93.1416 266.9956 13.16594742242932
ONEWEB-0283             
1 49001U 21060AL  26193.46833182  .00000090  00000+0  20272-3 0  9993
2 49001  87.9074 223.7581 0001955  98.7318 261.4035 13.16593546242940
ONEWEB-0284             
1 49002U 21060AM  26193.53800591  .00000083  00000+0  18354-3 0  9990
2 49002  87.9081 223.7376 0002353  93.4456 266.6944 13.16594144242939
ONEWEB-0285             
1 49075U 21075A   26193.44726044 -.00001001  00000+0 -28187-2 0  9993
2 49075  87.8967 345.6400 0001741  88.7451 271.3877 13.12436400238529
ONEWEB-0286             
1 49076U 21075B   26193.50556147  .00000131  00000+0  32860-3 0  9991
2 49076  87.8945 345.6423 0001675  81.7127 278.4191 13.12441331237884
ONEWEB-0287             
1 49077U 21075C   26193.45339275  .00000105  00000+0  23765-3 0  9992
2 49077  87.9141   0.8391 0001948  78.7621 281.3729 13.17648169236956
ONEWEB-0288             
1 49078U 21075D   26193.40574095  .00000401  00000+0  10795-2 0  9996
2 49078  87.8965 345.6414 0001981  91.3257 268.8099 13.12442723238493
ONEWEB-0289             
1 49079U 21075E   26193.49220755  .00000418  00000+0  10426-2 0  9996
2 49079  87.9148   0.8498 0002328  97.6658 262.4738 13.17648181237535
ONEWEB-0290             
1 49080U 21075F   26193.46520934  .00000016  00000+0  73115-5 0  9998
2 49080  87.9147   0.8279 0002284  96.2385 263.9007 13.17650535236941
